NORAD_CAT_ID,OBJECT_NAME,OBJECT_TYPE,EPOCH,MEAN_MOTION,ECCENTRICITY,INCLINATION,RA_OF_ASC_NODE,ARG_OF_PERICENTER,MEAN_ANOMALY,BSTAR,MEAN_MOTION_DOT,MEAN_MOTION_DDOT,TLE_LINE0,TLE_LINE1,TLE_LINE2,SEMIMAJOR_AXIS,PERIOD,APOGEE,PERIGEE,DECAYED
52855.0,STARLINK-4209,PAYLOAD,2022-12-17 19:22:48,15.08846307,0.0002468,53.2165,271.8364,36.2187,323.8972,0.00053564,8.248e-05,0.0,0 STARLINK-4209,1 52855U 22062AB  22351.80750071  .00008248  00000-0  53564-3 0  9996,2 52855  53.2165 271.8364 0002468  36.2187 323.8972 15.08846307 28597,6917.861,95.437,541.433,538.019,0.0
52855.0,STARLINK-4209,PAYLOAD,2022-12-18 03:19:43,15.08839224,0.0002455,53.2165,270.3495,31.4849,328.629,0.00014087,1.954e-05,0.0,0 STARLINK-4209,1 52855U 22062AB  22352.13870201  .00001954  00000-0  14087-3 0  9995,2 52855  53.2165 270.3495 0002455  31.4849 328.6290 15.08839224 28646,6917.8830000000025,95.438,541.446,538.049,0.0
52855.0,STARLINK-4209,PAYLOAD,2022-12-18 11:16:39,15.08830758,0.0002445,53.2162,268.8619,31.175,328.9386,-1.4096e-05,-5.13e-06,0.0,0 STARLINK-4209,1 52855U 22062AB  22352.46990672 -.00000513  00000-0 -14096-4 0  9999,2 52855  53.2162 268.8619 0002445  31.1750 328.9386 15.08830758 28697,6917.909000000002,95.438,541.465,538.082,0.0
52855.0,STARLINK-4209,PAYLOAD,2022-12-19 01:35:08,15.08839198,0.0002553,53.2175,266.1881,31.2253,328.8891,0.00013693,1.892e-05,0.0,0 STARLINK-4209,1 52855U 22062AB  22353.06606712  .00001892  00000-0  13693-3 0  9995,2 52855  53.2175 266.1881 0002553  31.2253 328.8891 15.08839198 28789,6917.8830000000025,95.438,541.514,537.982,0.0
52855.0,STARLINK-4209,PAYLOAD,2022-12-19 23:50:31,15.088552300000002,0.000257,53.2173,262.024,33.0606,327.0547,0.0004238,6.466e-05,0.0,0 STARLINK-4209,1 52855U 22062AB  22353.99341980  .00006466  00000-0  42380-3 0  9997,2 52855  53.2173 262.0240 0002570  33.0606 327.0547 15.08855230 28922,6917.834,95.437,541.477,537.9209999999998,0.0
52855.0,STARLINK-4209,PAYLOAD,2022-12-20 12:33:35,15.0886352,0.000253,53.2164,259.6451,31.6008,328.5135,0.00039861,6.065e-05,0.0,0 STARLINK-4209,1 52855U 22062AB  22354.52333190  .00006065  00000-0  39861-3 0  9996,2 52855  53.2164 259.6451 0002530  31.6008 328.5135 15.08863520 28519,6917.808000000001,95.436,541.424,537.923,0.0
52855.0,STARLINK-4209,PAYLOAD,2022-12-20 22:05:55,15.088374800000002,0.0002483,53.2167,257.8613,30.5515,329.5622,-4.5113e-05,-1.006e-05,0.0,0 STARLINK-4209,1 52855U 22062AB  22354.92077967 -.00001006  00000-0 -45113-4 0  9997,2 52855  53.2167 257.8613 0002483  30.5515 329.5622 15.08837480 29069,6917.888000000001,95.438,541.471,538.035,0.0
52855.0,STARLINK-4209,PAYLOAD,2022-12-21 10:49:00,15.08830913,0.0002516,53.2169,255.4816,31.2245,328.8896,-0.00020604,-3.565e-05,0.0,0 STARLINK-4209,1 52855U 22062AB  22355.45070513 -.00003565  00000-0 -20604-3 0  9995,2 52855  53.2169 255.4816 0002516  31.2245 328.8896 15.08830913 28658,6917.908,95.438,541.514,538.033,0.0
52855.0,STARLINK-4209,PAYLOAD,2022-12-21 17:10:33,15.08825123,0.0002515,53.2168,254.2924,33.9763,326.1389,-0.00026202,-4.455e-05,0.0,0 STARLINK-4209,1 52855U 22062AB  22355.71567061 -.00004455  00000-0 -26202-3 0  9992,2 52855  53.2168 254.2924 0002515  33.9763 326.1389 15.08825123 29181,6917.926,95.438,541.531,538.0509999999998,0.0
52855.0,STARLINK-4209,PAYLOAD,2022-12-22 12:15:11,15.08837996,0.0002624,53.2171,250.7248,33.9956,326.1204,-2.6213e-05,-7.06e-06,0.0,0 STARLINK-4209,1 52855U 22062AB  22356.51055313 -.00000706  00000-0 -26213-4 0  9991,2 52855  53.2171 250.7248 0002624  33.9956 326.1204 15.08837996 29301,6917.887,95.438,541.567,537.936,0.0
52855.0,STARLINK-4209,PAYLOAD,2022-12-22 18:36:43,15.08840961,0.0002484,53.217,249.5339,35.6365,324.4792,0.00010966,1.457e-05,0.0,0 STARLINK-4209,1 52855U 22062AB  22356.77550885  .00001457  00000-0  10966-3 0  9992,2 52855  53.2170 249.5339 0002484  35.6365 324.4792 15.08840961 28852,6917.877,95.437,541.461,538.024,0.0
52855.0,STARLINK-4209,PAYLOAD,2022-12-23 10:30:36,15.08828876,0.0002566,53.2161,246.5602,37.4762,322.6408,0.00038699,5.874e-05,0.0,0 STARLINK-4209,1 52855U 22062AB  22357.43792330  .00005874  00000-0  38699-3 0  9999,2 52855  53.2161 246.5602 0002566  37.4762 322.6408 15.08828876 29445,6917.9140000000025,95.438,541.555,538.004,0.0
52855.0,STARLINK-4209,PAYLOAD,2022-12-23 16:52:08,15.08838176,0.0002571,53.216,245.3705,37.5918,322.5253,0.00036425,5.513e-05,0.0,0 STARLINK-4209,1 52855U 22062AB  22357.70287960  .00005513  00000-0  36425-3 0  9992,2 52855  53.2160 245.3705 0002571  37.5918 322.5253 15.08838176 28995,6917.886,95.438,541.53,537.972,0.0
52855.0,STARLINK-4209,PAYLOAD,2022-12-23 23:13:40,15.08851566,0.0002729,53.2157,244.1826,36.506,323.6117,0.00049313,7.571e-05,0.0,0 STARLINK-4209,1 52855U 22062AB  22357.96783548  .00007571  00000-0  49313-3 0  9999,2 52855  53.2157 244.1826 0002729  36.5060 323.6117 15.08851566 29523,6917.845,95.437,541.5980000000002,537.822,0.0
52855.0,STARLINK-4209,PAYLOAD,2022-12-24 02:24:27,15.08858318,0.0002733,53.2156,243.5878,36.594,323.5238,0.00055872,8.62e-05,0.0,0 STARLINK-4209,1 52855U 22062AB  22358.10031314  .00008620  00000-0  55872-3 0  9996,2 52855  53.2156 243.5878 0002733  36.5940 323.5238 15.08858318 29057,6917.824000000001,95.436,541.58,537.799,0.0
52855.0,STARLINK-4209,PAYLOAD,2022-12-24 21:29:04,15.08846639,0.0002417,53.216,240.0157,44.4624,315.6562,4.6937e-05,4.59e-06,0.0,0 STARLINK-4209,1 52855U 22062AB  22358.89519112  .00000459  00000-0  46937-4 0  9994,2 52855  53.2160 240.0157 0002417  44.4624 315.6562 15.08846639 29662,6917.86,95.437,541.3969999999998,538.053,0.0
52855.0,STARLINK-4209,PAYLOAD,2022-12-25 08:36:46,15.08843304,0.0002725,53.2158,237.9372,34.4351,325.6817,3.4411e-05,2.59e-06,0.0,0 STARLINK-4209,1 52855U 22062AB  22359.35887257  .00000259  00000-0  34411-4 0  9996,2 52855  53.2158 237.9372 0002725  34.4351 325.6817 15.08843304 29245,6917.87,95.437,541.62,537.85,0.0
52855.0,STARLINK-4209,PAYLOAD,2022-12-25 16:33:42,15.08834226,0.0002582,53.2158,236.4506,38.5037,321.6139,-0.00012513,-2.279e-05,0.0,0 STARLINK-4209,1 52855U 22062AB  22359.69007696 -.00002279  00000-0 -12513-3 0  9998,2 52855  53.2158 236.4506 0002582  38.5037 321.6139 15.08834226 29780,6917.898,95.438,541.549,537.977,0.0
52855.0,STARLINK-4209,PAYLOAD,2022-12-26 08:27:33,15.08842553,0.0002679,53.217,233.4773,38.0685,322.0496,-3.5665e-05,-8.56e-06,0.0,0 STARLINK-4209,1 52855U 22062AB  22360.35247683 -.00000856  00000-0 -35665-4 0  9998,2 52855  53.2170 233.4773 0002679  38.0685 322.0496 15.08842553 29398,6917.873000000001,95.437,541.591,537.884,0.0
52855.0,STARLINK-4209,PAYLOAD,2022-12-26 16:24:29,15.0883501,0.0002601,53.2168,231.9906,38.9607,321.1572,0.00010136,1.325e-05,0.0,0 STARLINK-4209,1 52855U 22062AB  22360.68367819  .00001325  00000-0  10136-3 0  9993,2 52855  53.2168 231.9906 0002601  38.9607 321.1572 15.08835010 29445,6917.896,95.438,541.56,537.961,0.0
52855.0,STARLINK-4209,PAYLOAD,2022-12-27 00:21:25,15.08829849,0.0002676,53.2166,230.5038,38.1005,322.0176,9.2794e-05,1.188e-05,0.0,0 STARLINK-4209,1 52855U 22062AB  22361.01488372  .00001188  00000-0  92794-4 0  9997,2 52855  53.2166 230.5038 0002676  38.1005 322.0176 15.08829849 29982,6917.911,95.438,541.628,537.925,0.0
52855.0,STARLINK-4209,PAYLOAD,2022-12-27 14:39:53,15.08850838,0.0002744,53.2173,227.827,36.3357,323.7822,-6.141600000000001e-05,-1.266e-05,0.0,0 STARLINK-4209,1 52855U 22062AB  22361.61103398 -.00001266  00000-0 -61416-4 0  9991,2 52855  53.2173 227.8270 0002744  36.3357 323.7822 15.08850838 29587,6917.847,95.437,541.611,537.814,0.0
52855.0,STARLINK-4209,PAYLOAD,2022-12-28 00:12:11,15.08848193,0.0002667,53.2171,226.0429,36.2714,323.8459,0.00020364,2.955e-05,0.0,0 STARLINK-4209,1 52855U 22062AB  22362.00847164  .00002955  00000-0  20364-3 0  9991,2 52855  53.2171 226.0429 0002667  36.2714 323.8459 15.08848193 29647,6917.855,95.437,541.565,537.875,0.0
52855.0,STARLINK-4209,PAYLOAD,2022-12-29 00:03:00,15.08833086,0.0003094,53.2162,221.5813,39.9747,320.1473,6.681e-05,7.75e-06,0.0,0 STARLINK-4209,1 52855U 22062AB  22363.00208737  .00000775  00000-0  66810-4 0  9994,2 52855  53.2162 221.5813 0003094  39.9747 320.1473 15.08833086 30288,6917.901999999999,95.438,541.9069999999998,537.626,0.0
52855.0,STARLINK-4209,PAYLOAD,2022-12-29 07:59:56,15.08831893,0.0002767,53.2154,220.094,40.1873,319.9323,2.4104e-05,9.5e-07,0.0,0 STARLINK-4209,1 52855U 22062AB  22363.33328993  .00000095  00000-0  24104-4 0  9992,2 52855  53.2154 220.0940 0002767  40.1873 319.9323 15.08831893 29848,6917.905,95.438,541.684,537.856,0.0
52855.0,STARLINK-4209,PAYLOAD,2022-12-29 23:53:47,15.08842256,0.0002682,53.216,217.122,36.6598,323.4578,-8.2387e-06,-4.2e-06,0.0,0 STARLINK-4209,1 52855U 22062AB  22363.99568395 -.00000420  00000-0 -82387-5 0  9998,2 52855  53.2160 217.1220 0002682  36.6598 323.4578 15.08842256 30437,6917.873000000001,95.437,541.594,537.883,0.0
52855.0,STARLINK-4209,PAYLOAD,2022-12-30 07:50:42,15.08846159,0.0002612,53.2164,215.6355,38.1638,321.9538,3.1806e-05,2.18e-06,0.0,0 STARLINK-4209,1 52855U 22062AB  22364.32687998  .00000218  00000-0  31806-4 0  9999,2 52855  53.2164 215.6355 0002612  38.1638 321.9538 15.08846159 29992,6917.861999999999,95.437,541.534,537.92,0.0
52855.0,STARLINK-4209,PAYLOAD,2022-12-30 23:44:33,15.08847872,0.0002758,53.2159,212.6618,37.9464,322.1722,0.00024922,3.681e-05,0.0,0 STARLINK-4209,1 52855U 22062AB  22364.98927522  .00003681  00000-0  24922-3 0  9998,2 52855  53.2159 212.6618 0002758  37.9464 322.1722 15.08847872 30588,6917.856,95.437,541.629,537.813,0.0
52855.0,STARLINK-4209,PAYLOAD,2022-12-31 07:41:28,15.08853504,0.0002787,53.2159,211.175,38.8183,321.3009,0.00027138,4.035e-05,0.0,0 STARLINK-4209,1 52855U 22062AB  22365.32047029  .00004035  00000-0  27138-3 0  9998,2 52855  53.2159 211.1750 0002787  38.8183 321.3009 15.08853504 30149,6917.839,95.437,541.632,537.776,0.0
